CCSDS_OMM_VERS = 2.0
CREATION_DATE  = 
ORIGINATOR     = 

OBJECT_NAME    = STARLINK-36148
OBJECT_ID      = 2025-293C
CENTER_NAME    = EARTH
REF_FRAME      = TEME
TIME_SYSTEM    = UTC
MEAN_ELEMENT_THEORY = SGP/SGP4

EPOCH          = 2026-01-09T15:59:13.479072
MEAN_MOTION    = 15.52587189
ECCENTRICITY   = .00033186
INCLINATION    = 69.9999
RA_OF_ASC_NODE = 244.9956
ARG_OF_PERICENTER = 315.9916
MEAN_ANOMALY   = 44.1007

EPHEMERIS_TYPE = 0
CLASSIFICATION_TYPE = U
NORAD_CAT_ID   = 67005
ELEMENT_SET_NO = 999
REV_AT_EPOCH   = 600
BSTAR          = .17783154E-2
MEAN_MOTION_DOT = .111049E-2
MEAN_MOTION_DDOT = 0

CCSDS_OMM_VERS = 2.0
CREATION_DATE  = 
ORIGINATOR     = 

OBJECT_NAME    = STARLINK-36156
OBJECT_ID      = 2025-293D
CENTER_NAME    = EARTH
REF_FRAME      = TEME
TIME_SYSTEM    = UTC
MEAN_ELEMENT_THEORY = SGP/SGP4

EPOCH          = 2026-01-09T15:58:13.672128
MEAN_MOTION    = 15.52541886
ECCENTRICITY   = .00034754
INCLINATION    = 70.0008
RA_OF_ASC_NODE = 244.9934
ARG_OF_PERICENTER = 262.1687
MEAN_ANOMALY   = 97.9105

EPHEMERIS_TYPE = 0
CLASSIFICATION_TYPE = U
NORAD_CAT_ID   = 67006
ELEMENT_SET_NO = 999
REV_AT_EPOCH   = 600
BSTAR          = .19260124E-2
MEAN_MOTION_DOT = .120232E-2
MEAN_MOTION_DDOT = 0

CCSDS_OMM_VERS = 2.0
CREATION_DATE  = 
ORIGINATOR     = 

OBJECT_NAME    = STARLINK-36123
OBJECT_ID      = 2025-293E
CENTER_NAME    = EARTH
REF_FRAME      = TEME
TIME_SYSTEM    = UTC
MEAN_ELEMENT_THEORY = SGP/SGP4

EPOCH          = 2026-01-09T15:58:43.821408
MEAN_MOTION    = 15.52572824
ECCENTRICITY   = .00045301
INCLINATION    = 70.0008
RA_OF_ASC_NODE = 244.9957
ARG_OF_PERICENTER = 308.2852
MEAN_ANOMALY   = 51.7927

EPHEMERIS_TYPE = 0
CLASSIFICATION_TYPE = U
NORAD_CAT_ID   = 67007
ELEMENT_SET_NO = 999
REV_AT_EPOCH   = 600
BSTAR          = .12518651E-2
MEAN_MOTION_DOT = .77769E-3
MEAN_MOTION_DDOT = 0

CCSDS_OMM_VERS = 2.0
CREATION_DATE  = 
ORIGINATOR     = 

OBJECT_NAME    = STARLINK-36163
OBJECT_ID      = 2025-293F
CENTER_NAME    = EARTH
REF_FRAME      = TEME
TIME_SYSTEM    = UTC
MEAN_ELEMENT_THEORY = SGP/SGP4

EPOCH          = 2026-01-09T02:02:48.922944
MEAN_MOTION    = 15.53236865
ECCENTRICITY   = .0004543
INCLINATION    = 70.0061
RA_OF_ASC_NODE = 246.5829
ARG_OF_PERICENTER = 255.7548
MEAN_ANOMALY   = 104.3135

EPHEMERIS_TYPE = 0
CLASSIFICATION_TYPE = U
NORAD_CAT_ID   = 67008
ELEMENT_SET_NO = 999
REV_AT_EPOCH   = 591
BSTAR          = -.11207E-1
MEAN_MOTION_DOT = -.652815E-2
MEAN_MOTION_DDOT = 0

CCSDS_OMM_VERS = 2.0
CREATION_DATE  = 
ORIGINATOR     = 

OBJECT_NAME    = STARLINK-36118
OBJECT_ID      = 2025-293G
CENTER_NAME    = EARTH
REF_FRAME      = TEME
TIME_SYSTEM    = UTC
MEAN_ELEMENT_THEORY = SGP/SGP4

EPOCH          = 2026-01-09T15:57:41.139072
MEAN_MOTION    = 15.52226533
ECCENTRICITY   = .00214434
INCLINATION    = 69.9982
RA_OF_ASC_NODE = 244.9909
ARG_OF_PERICENTER = 184.1675
MEAN_ANOMALY   = 175.9337

EPHEMERIS_TYPE = 0
CLASSIFICATION_TYPE = U
NORAD_CAT_ID   = 67009
ELEMENT_SET_NO = 999
REV_AT_EPOCH   = 600
BSTAR          = .38399989E-2
MEAN_MOTION_DOT = .242922E-2
MEAN_MOTION_DDOT = 0

CCSDS_OMM_VERS = 2.0
CREATION_DATE  = 
ORIGINATOR     = 

OBJECT_NAME    = STARLINK-36189
OBJECT_ID      = 2025-293H
CENTER_NAME    = EARTH
REF_FRAME      = TEME
TIME_SYSTEM    = UTC
MEAN_ELEMENT_THEORY = SGP/SGP4

EPOCH          = 2026-01-09T15:56:44.842560
MEAN_MOTION    = 15.52552771
ECCENTRICITY   = .00028099
INCLINATION    = 70.0011
RA_OF_ASC_NODE = 244.9848
ARG_OF_PERICENTER = 277.2621
MEAN_ANOMALY   = 82.8247

EPHEMERIS_TYPE = 0
CLASSIFICATION_TYPE = U
NORAD_CAT_ID   = 67010
ELEMENT_SET_NO = 999
REV_AT_EPOCH   = 600
BSTAR          = .55677566E-3
MEAN_MOTION_DOT = .34273E-3
MEAN_MOTION_DDOT = 0

CCSDS_OMM_VERS = 2.0
CREATION_DATE  = 
ORIGINATOR     = 

OBJECT_NAME    = STARLINK-36167
OBJECT_ID      = 2025-293J
CENTER_NAME    = EARTH
REF_FRAME      = TEME
TIME_SYSTEM    = UTC
MEAN_ELEMENT_THEORY = SGP/SGP4

EPOCH          = 2026-01-09T15:57:14.609088
MEAN_MOTION    = 15.52591260
ECCENTRICITY   = .00023688
INCLINATION    = 70.0032
RA_OF_ASC_NODE = 244.9913
ARG_OF_PERICENTER = 284.9064
MEAN_ANOMALY   = 75.1860

EPHEMERIS_TYPE = 0
CLASSIFICATION_TYPE = U
NORAD_CAT_ID   = 67011
ELEMENT_SET_NO = 999
REV_AT_EPOCH   = 600
BSTAR          = .16146408E-2
MEAN_MOTION_DOT = .100686E-2
MEAN_MOTION_DDOT = 0

CCSDS_OMM_VERS = 2.0
CREATION_DATE  = 
ORIGINATOR     = 

OBJECT_NAME    = STARLINK-36175
OBJECT_ID      = 2025-293K
CENTER_NAME    = EARTH
REF_FRAME      = TEME
TIME_SYSTEM    = UTC
MEAN_ELEMENT_THEORY = SGP/SGP4

EPOCH          = 2026-01-09T15:55:40.941120
MEAN_MOTION    = 15.58213041
ECCENTRICITY   = .00327918
INCLINATION    = 70.0020
RA_OF_ASC_NODE = 244.9912
ARG_OF_PERICENTER = 247.2432
MEAN_ANOMALY   = 112.5292

EPHEMERIS_TYPE = 0
CLASSIFICATION_TYPE = U
NORAD_CAT_ID   = 67012
ELEMENT_SET_NO = 999
REV_AT_EPOCH   = 600
BSTAR          = .46036403E-1
MEAN_MOTION_DOT = .4184354E-1
MEAN_MOTION_DDOT = 0

CCSDS_OMM_VERS = 2.0
CREATION_DATE  = 
ORIGINATOR     = 

OBJECT_NAME    = STARLINK-35856
OBJECT_ID      = 2025-293L
CENTER_NAME    = EARTH
REF_FRAME      = TEME
TIME_SYSTEM    = UTC
MEAN_ELEMENT_THEORY = SGP/SGP4

EPOCH          = 2026-01-09T14:22:31.050336
MEAN_MOTION    = 15.52979759
ECCENTRICITY   = .00039024
INCLINATION    = 70.0001
RA_OF_ASC_NODE = 245.1613
ARG_OF_PERICENTER = 277.9485
MEAN_ANOMALY   = 82.1259

EPHEMERIS_TYPE = 0
CLASSIFICATION_TYPE = U
NORAD_CAT_ID   = 67013
ELEMENT_SET_NO = 999
REV_AT_EPOCH   = 599
BSTAR          = -.75866365E-2
MEAN_MOTION_DOT = -.449003E-2
MEAN_MOTION_DDOT = 0

CCSDS_OMM_VERS = 2.0
CREATION_DATE  = 
ORIGINATOR     = 

OBJECT_NAME    = STARLINK-36207
OBJECT_ID      = 2025-293M
CENTER_NAME    = EARTH
REF_FRAME      = TEME
TIME_SYSTEM    = UTC
MEAN_ELEMENT_THEORY = SGP/SGP4

EPOCH          = 2026-01-09T01:59:50.906112
MEAN_MOTION    = 15.53255026
ECCENTRICITY   = .00047953
INCLINATION    = 70.0067
RA_OF_ASC_NODE = 246.5740
ARG_OF_PERICENTER = 251.3429
MEAN_ANOMALY   = 108.7238

EPHEMERIS_TYPE = 0
CLASSIFICATION_TYPE = U
NORAD_CAT_ID   = 67014
ELEMENT_SET_NO = 999
REV_AT_EPOCH   = 591
BSTAR          = -.12400654E-1
MEAN_MOTION_DOT = -.717103E-2
MEAN_MOTION_DDOT = 0

CCSDS_OMM_VERS = 2.0
CREATION_DATE  = 
ORIGINATOR     = 

OBJECT_NAME    = STARLINK-36093
OBJECT_ID      = 2025-293N
CENTER_NAME    = EARTH
REF_FRAME      = TEME
TIME_SYSTEM    = UTC
MEAN_ELEMENT_THEORY = SGP/SGP4

EPOCH          = 2026-01-09T14:00:01.999872
MEAN_MOTION    = 15.52427942
ECCENTRICITY   = .0003486
INCLINATION    = 70.0000
RA_OF_ASC_NODE = 245.1973
ARG_OF_PERICENTER = 267.0333
MEAN_ANOMALY   = 9.8095

EPHEMERIS_TYPE = 0
CLASSIFICATION_TYPE = U
NORAD_CAT_ID   = 67015
ELEMENT_SET_NO = 999
REV_AT_EPOCH   = 456
BSTAR          = .24755549E-2
MEAN_MOTION_DOT = .154626E-2
MEAN_MOTION_DDOT = 0

CCSDS_OMM_VERS = 2.0
CREATION_DATE  = 
ORIGINATOR     = 

OBJECT_NAME    = STARLINK-36120
OBJECT_ID      = 2025-293P
CENTER_NAME    = EARTH
REF_FRAME      = TEME
TIME_SYSTEM    = UTC
MEAN_ELEMENT_THEORY = SGP/SGP4

EPOCH          = 2026-01-09T14:00:01.999872
MEAN_MOTION    = 15.52438650
ECCENTRICITY   = .00032879
INCLINATION    = 70.0001
RA_OF_ASC_NODE = 245.2003
ARG_OF_PERICENTER = 266.6570
MEAN_ANOMALY   = 8.2641

EPHEMERIS_TYPE = 0
CLASSIFICATION_TYPE = U
NORAD_CAT_ID   = 67016
ELEMENT_SET_NO = 999
REV_AT_EPOCH   = 456
BSTAR          = .20771916E-2
MEAN_MOTION_DOT = .129349E-2
MEAN_MOTION_DDOT = 0

