STARLINK-36148          
1 67005U 25293C   26009.66612823  .00111049  00000+0  17783-2 0  9993
2 67005  69.9999 244.9956 0003318 315.9916  44.1007 15.52587189  6002
STARLINK-36156          
1 67006U 25293D   26009.66543602  .00120232  00000+0  19260-2 0  9998
2 67006  70.0008 244.9934 0003475 262.1687  97.9105 15.52541886  6004
STARLINK-36123          
1 67007U 25293E   26009.66578497  .00077769  00000+0  12519-2 0  9995
2 67007  70.0008 244.9957 0004530 308.2852  51.7927 15.52572824  6005
STARLINK-36163          
1 67008U 25293F   26009.08528846 -.00652815  00000+0 -11207-1 0  9990
2 67008  70.0061 246.5829 0004543 255.7548 104.3135 15.53236865  5911
STARLINK-36118          
1 67009U 25293G   26009.66505948  .00242922  00000+0  38400-2 0  9990
2 67009  69.9982 244.9909 0021443 184.1675 175.9337 15.52226533  6005
STARLINK-36189          
1 67010U 25293H   26009.66440790  .00034273  00000+0  55678-3 0  9990
2 67010  70.0011 244.9848 0002809 277.2621  82.8247 15.52552771  6007
STARLINK-36167          
1 67011U 25293J   26009.66475242  .00100686  00000+0  16146-2 0  9999
2 67011  70.0032 244.9913 0002368 284.9064  75.1860 15.52591260  6002
STARLINK-36175          
1 67012U 25293K   26009.66366830  .04184354  00000+0  46036-1 0  9990
2 67012  70.0020 244.9912 0032791 247.2432 112.5292 15.58213041  6002
STARLINK-35856          
1 67013U 25293L   26009.59897049 -.00449003  00000+0 -75866-2 0  9991
2 67013  70.0001 245.1613 0003902 277.9485  82.1259 15.52979759  5994
STARLINK-36207          
1 67014U 25293M   26009.08322808 -.00717103  00000+0 -12401-1 0  9996
2 67014  70.0067 246.5740 0004795 251.3429 108.7238 15.53255026  5917
STARLINK-36093          
1 67015U 25293N   26009.58335648  .00154626  00000+0  24756-2 0  9998
2 67015  70.0000 245.1973 0003486 267.0333   9.8095 15.52427942  4561
STARLINK-36120          
1 67016U 25293P   26009.58335648  .00129349  00000+0  20772-2 0  9997
2 67016  70.0001 245.2003 0003287 266.6570   8.2641 15.52438650  4563
